[{"OBJECT_NAME":"STARLINK-3162","OBJECT_ID":"2021-104D","EPOCH":"2026-03-09T17:06:30.481920","MEAN_MOTION":15.0883253,"ECCENTRICITY":0.00011948,"INCLINATION":53.217,"RA_OF_ASC_NODE":219.0174,"ARG_OF_PERICENTER":88.3826,"MEAN_ANOMALY":271.7303,"EPHEMERIS_TYPE":0,"CLASSIFICATION_TYPE":"U","NORAD_CAT_ID":49411,"ELEMENT_SET_NO":999,"REV_AT_EPOCH":23877,"BSTAR":2.4948277e-5,"MEAN_MOTION_DOT":1.09e-6,"MEAN_MOTION_DDOT":0},{"OBJECT_NAME":"CZ-4 DEB","OBJECT_ID":"2006-046J","EPOCH":"2026-03-09T18:53:15.937728","MEAN_MOTION":15.02015872,"ECCENTRICITY":0.00905092,"INCLINATION":97.813,"RA_OF_ASC_NODE":3.4349,"ARG_OF_PERICENTER":91.2796,"MEAN_ANOMALY":323.9331,"EPHEMERIS_TYPE":0,"CLASSIFICATION_TYPE":"U","NORAD_CAT_ID":35376,"ELEMENT_SET_NO":999,"REV_AT_EPOCH":2538,"BSTAR":0.001704414,"MEAN_MOTION_DOT":0.00024412,"MEAN_MOTION_DDOT":0}]
